NORAD_CAT_ID,OBJECT_NAME,OBJECT_TYPE,EPOCH,MEAN_MOTION,ECCENTRICITY,INCLINATION,RA_OF_ASC_NODE,ARG_OF_PERICENTER,MEAN_ANOMALY,BSTAR,MEAN_MOTION_DOT,MEAN_MOTION_DDOT,TLE_LINE0,TLE_LINE1,TLE_LINE2,SEMIMAJOR_AXIS,PERIOD,APOGEE,PERIGEE,DECAYED
53575.0,STARLINK-4551,PAYLOAD,2023-07-01 01:18:46,15.08831507,0.0001126,53.216,145.1292,97.5008,262.6113,-2.8739e-05,-7.45e-06,0.0,0 STARLINK-4551,1 53575U 22101BA  23182.05470175 -.00000745  00000-0 -28739-4 0  9997,2 53575  53.2160 145.1292 0001126  97.5008 262.6113 15.08831507 48109,6917.906,95.438,540.55,538.992,0.0
53575.0,STARLINK-4551,PAYLOAD,2023-07-02 01:09:32,15.08850081,0.000161,53.2156,140.669,127.0316,233.0823,0.00010812,1.434e-05,0.0,0 STARLINK-4551,1 53575U 22101BA  23183.04828898  .00001434  00000-0  10812-3 0  9992,2 53575  53.2156 140.6690 0001610 127.0316 233.0823 15.08850081 48259,6917.85,95.437,540.828,538.601,0.0
53575.0,STARLINK-4551,PAYLOAD,2023-07-02 04:20:19,15.08836859,0.0001159,53.2157,140.0762,103.6591,256.453,6.4236e-06,-1.86e-06,0.0,0 STARLINK-4551,1 53575U 22101BA  23183.18078145 -.00000186  00000-0  64236-5 0  9994,2 53575  53.2157 140.0762 0001159 103.6591 256.4530 15.08836859 48270,6917.89,95.438,540.557,538.953,0.0
53575.0,STARLINK-4551,PAYLOAD,2023-07-03 15:18:48,15.08836716,0.0001024,53.2161,133.5339,104.8792,255.2313,6.8593e-05,8.04e-06,0.0,0 STARLINK-4551,1 53575U 22101BA  23184.63806268  .00000804  00000-0  68593-4 0  9995,2 53575  53.2161 133.5339 0001024 104.8792 255.2313 15.08836716 48491,6917.89,95.438,540.464,539.047,0.0
53575.0,STARLINK-4551,PAYLOAD,2023-07-04 00:51:08,15.0879758,5.18e-05,53.2161,131.7497,142.5953,217.5075,0.0005282,8.119e-05,0.0,0 STARLINK-4551,1 53575U 22101BA  23185.03551509  .00008119  00000-0  52820-3 0  9997,2 53575  53.2161 131.7497 0000518 142.5953 217.5075 15.08797580 48559,6918.01,95.44,540.233,539.517,0.0
53575.0,STARLINK-4551,PAYLOAD,2023-07-04 05:37:16,15.08879923,8.78e-05,53.216,130.8573,115.6824,244.4259,-0.00049789,-8.211e-05,0.0,0 STARLINK-4551,1 53575U 22101BA  23185.23421374 -.00008211  00000-0 -49789-3 0  9990,2 53575  53.2160 130.8573 0000878 115.6824 244.4259 15.08879923 48588,6917.758,95.435,540.231,539.016,0.0
53575.0,STARLINK-4551,PAYLOAD,2023-07-05 00:41:54,15.08836882,0.0001196,53.2158,127.2891,87.9336,272.1793,1.8247e-05,3e-08,0.0,0 STARLINK-4551,1 53575U 22101BA  23186.02910765  .00000003  00000-0  18247-4 0  9990,2 53575  53.2158 127.2891 0001196  87.9336 272.1793 15.08836882 48703,6917.89,95.438,540.582,538.928,0.0
53575.0,STARLINK-4551,PAYLOAD,2023-07-06 02:08:04,15.08841519,0.0001207,53.2159,122.5306,87.768,272.345,7.6371e-05,9.28e-06,0.0,0 STARLINK-4551,1 53575U 22101BA  23187.08894225  .00000928  00000-0  76371-4 0  9997,2 53575  53.2159 122.5306 0001207  87.7680 272.3450 15.08841519 48868,6917.876,95.437,540.576,538.906,0.0
53575.0,STARLINK-4551,PAYLOAD,2023-07-07 05:09:37,15.0884328,0.0001233,53.2161,117.4743,90.1914,269.9219,3.9981e-05,3.49e-06,0.0,0 STARLINK-4551,1 53575U 22101BA  23188.21502198  .00000349  00000-0  39981-4 0  9991,2 53575  53.2161 117.4743 0001233  90.1914 269.9219 15.08843280 49038,6917.87,95.437,540.588,538.882,0.0
53575.0,STARLINK-4551,PAYLOAD,2023-07-08 19:18:53,15.08831956,0.0001295,53.2164,110.336,104.9715,255.142,-2.6268e-05,-7.06e-06,0.0,0 STARLINK-4551,1 53575U 22101BA  23189.80479115 -.00000706  00000-0 -26268-4 0  9992,2 53575  53.2164 110.3360 0001295 104.9715 255.1420 15.08831956 49273,6917.905,95.438,540.666,538.874,0.0
53575.0,STARLINK-4551,PAYLOAD,2023-07-10 03:06:36,15.08838252,0.0001142,53.2173,104.3927,95.7283,264.3839,2.7439e-06,-2.44e-06,0.0,0 STARLINK-4551,1 53575U 22101BA  23191.12959182 -.00000244  00000-0  27439-5 0  9995,2 53575  53.2173 104.3927 0001142  95.7283 264.3839 15.08838252 49477,6917.886,95.438,540.541,538.961,0.0
53575.0,STARLINK-4551,PAYLOAD,2023-07-12 02:48:10,15.08848224,0.000103,53.2171,95.4709,89.5415,270.5695,9.1194e-05,1.164e-05,0.0,0 STARLINK-4551,1 53575U 22101BA  23193.11678614  .00001164  00000-0  91194-4 0  9993,2 53575  53.2171  95.4709 0001030  89.5415 270.5695 15.08848224 49779,6917.855,95.437,540.433,539.008,0.0
53575.0,STARLINK-4551,PAYLOAD,2023-07-12 10:45:06,15.0884498,0.0001189,53.2174,93.9836,76.2803,283.8321,-2.1692e-06,-3.22e-06,0.0,0 STARLINK-4551,1 53575U 22101BA  23193.44799159 -.00000322  00000-0 -21692-5 0  9991,2 53575  53.2174  93.9836 0001189  76.2803 283.8321 15.08844980 49829,6917.865,95.437,540.553,538.908,0.0
53575.0,STARLINK-4551,PAYLOAD,2023-07-12 23:28:11,15.08837416,9.91e-05,53.2176,91.6057,84.4601,275.6504,6.7077e-06,-1.81e-06,0.0,0 STARLINK-4551,1 53575U 22101BA  23193.97791593 -.00000181  00000-0  67077-5 0  9992,2 53575  53.2176  91.6057 0000991  84.4601 275.6504 15.08837416 49905,6917.888,95.438,540.439,539.068,0.0
53575.0,STARLINK-4551,PAYLOAD,2023-07-14 02:29:44,15.08848472,0.0001153,53.2175,86.5481,91.2641,268.8483,3.3833e-05,2.51e-06,0.0,0 STARLINK-4551,1 53575U 22101BA  23195.10398769  .00000251  00000-0  33833-4 0  9996,2 53575  53.2175  86.5481 0001153  91.2641 268.8483 15.08848472 50073,6917.854,95.437,540.517,538.922,0.0
53575.0,STARLINK-4551,PAYLOAD,2023-07-14 16:48:13,15.08836375,0.0001012,53.2166,83.8711,90.2298,269.881,4.9623e-05,5.02e-06,0.0,0 STARLINK-4551,1 53575U 22101BA  23195.70015439  .00000502  00000-0  49623-4 0  9995,2 53575  53.2166  83.8711 0001012  90.2298 269.8810 15.08836375 50164,6917.891,95.438,540.457,539.056,0.0
53575.0,STARLINK-4551,PAYLOAD,2023-07-14 23:09:45,15.08844337,0.0001213,53.2168,82.6843,88.1522,271.9609,0.00010627,1.404e-05,0.0,0 STARLINK-4551,1 53575U 22101BA  23195.96510810  .00001404  00000-0  10627-3 0  9999,2 53575  53.2168  82.6843 0001213  88.1522 271.9609 15.08844337 50200,6917.867,95.437,540.571,538.893,0.0
53575.0,STARLINK-4551,PAYLOAD,2023-07-15 23:00:32,15.08840144,0.0001184,53.2171,78.222,83.4375,276.6752,8.771e-06,-1.48e-06,0.0,0 STARLINK-4551,1 53575U 22101BA  23196.95871448 -.00000148  00000-0  87710-5 0  9990,2 53575  53.2171  78.2220 0001184  83.4375 276.6752 15.08840144 50354,6917.88,95.438,540.564,538.926,0.0
53575.0,STARLINK-4551,PAYLOAD,2023-07-17 00:26:43,15.08842595,0.0001306,53.218,73.4664,85.9443,274.1698,1.8489e-05,6e-08,0.0,0 STARLINK-4551,1 53575U 22101BA  23198.01855497  .00000006  00000-0  18489-4 0  9993,2 53575  53.2180  73.4664 0001306  85.9443 274.1698 15.08842595 50514,6917.872,95.437,540.641,538.834,0.0
53575.0,STARLINK-4551,PAYLOAD,2023-07-19 00:08:17,15.08836693,0.0001349,53.2187,64.5425,83.3229,276.7916,1.6557e-06,-2.62e-06,0.0,0 STARLINK-4551,1 53575U 22101BA  23200.00576258 -.00000262  00000-0  16557-5 0  9991,2 53575  53.2187  64.5425 0001349  83.3229 276.7916 15.08836693 50814,6917.89,95.438,540.689,538.822,0.0
53575.0,STARLINK-4551,PAYLOAD,2023-07-20 14:17:33,15.08836591,0.0001261,53.2177,57.4084,71.518,288.5949,7.0993e-05,8.42e-06,0.0,0 STARLINK-4551,1 53575U 22101BA  23201.59552344  .00000842  00000-0  70993-4 0  9992,2 53575  53.2177  57.4084 0001261  71.5180 288.5949 15.08836591 51054,6917.891,95.438,540.628,538.883,0.0
53575.0,STARLINK-4551,PAYLOAD,2023-07-24 12:05:18,15.08835546,0.0001028,53.2173,39.8624,97.5043,262.6066,4.5344e-05,4.34e-06,0.0,0 STARLINK-4551,1 53575U 22101BA  23205.50368508  .00000434  00000-0  45344-4 0  9993,2 53575  53.2173  39.8624 0001028  97.5043 262.6066 15.08835546 52335,6917.894,95.438,540.47,539.048,0.0
53575.0,STARLINK-4551,PAYLOAD,2023-07-25 13:31:29,15.08829745,7.93e-05,53.2175,35.1063,68.593,291.5147,-5.7282e-06,-3.79e-06,0.0,0 STARLINK-4551,1 53575U 22101BA  23206.56353282 -.00000379  00000-0 -57282-5 0  9998,2 53575  53.2175  35.1063 0000793  68.5930 291.5147 15.08829745 52496,6917.912,95.438,540.325,539.228,0.0
53575.0,STARLINK-4551,PAYLOAD,2023-07-26 11:46:52,15.08867876,0.0001204,53.2174,30.9406,123.9553,236.1554,-0.00028867,-4.883e-05,0.0,0 STARLINK-4551,1 53575U 22101BA  23207.49088056 -.00004883  00000-0 -28867-3 0  9994,2 53575  53.2174  30.9406 0001204 123.9553 236.1554 15.08867876 52634,6917.795,95.436,540.493,538.827,0.0
53575.0,STARLINK-4551,PAYLOAD,2023-07-26 16:33:01,15.08845247,8.56e-05,53.2173,30.0488,106.0741,254.0346,7.3026e-06,-1.71e-06,0.0,0 STARLINK-4551,1 53575U 22101BA  23207.68960327 -.00000171  00000-0  73026-5 0  9999,2 53575  53.2173  30.0488 0000856 106.0741 254.0346 15.08845247 51979,6917.864,95.437,540.322,539.137,0.0
53575.0,STARLINK-4551,PAYLOAD,2023-07-27 11:37:39,15.08833436,0.000102,53.2171,26.4807,103.2289,256.8817,4.461e-05,4.22e-06,0.0,0 STARLINK-4551,1 53575U 22101BA  23208.48449060  .00000422  00000-0  44610-4 0  9998,2 53575  53.2171  26.4807 0001020 103.2289 256.8817 15.08833436 52781,6917.9,95.438,540.471,539.06,0.0
53575.0,STARLINK-4551,PAYLOAD,2023-07-28 05:06:55,15.08830393,0.000126,53.2161,23.2106,73.4397,286.6734,1.693e-06,-2.61e-06,0.0,0 STARLINK-4551,1 53575U 22101BA  23209.21313804 -.00000261  00000-0  16930-5 0  9993,2 53575  53.2161  23.2106 0001260  73.4397 286.6734 15.08830393 52206,6917.91,95.438,540.646,538.903,0.0
53575.0,STARLINK-4551,PAYLOAD,2023-07-28 17:49:58,15.08868037,6.5e-05,53.22,20.8309,57.8131,302.2925,-0.00030409,-5.128e-05,0.0,0 STARLINK-4551,1 53575U 22101BA  23209.74304281 -.00005128  00000-0 -30409-3 0  9993,2 53575  53.2200  20.8309 0000650  57.8131 302.2925 15.08868037 52283,6917.795,95.436,540.109,539.21,0.0
53575.0,STARLINK-4551,PAYLOAD,2023-07-28 21:00:45,15.0884281,9.85e-05,53.2175,20.2351,89.0045,271.106,0.00011666,1.57e-05,0.0,0 STARLINK-4551,1 53575U 22101BA  23209.87552585  .00001570  00000-0  11666-3 0  9998,2 53575  53.2175  20.2351 0000985  89.0045 271.1060 15.08842810 52305,6917.872,95.437,540.418,539.055,0.0
53575.0,STARLINK-4551,PAYLOAD,2023-07-29 17:40:46,15.08840629,0.0001132,53.2191,16.3732,56.2155,303.8945,0.0001263,1.723e-05,0.0,0 STARLINK-4551,1 53575U 22101BA  23210.73664780  .00001723  00000-0  12630-3 0  9998,2 53575  53.2191  16.3732 0001132  56.2155 303.8945 15.08840629 52430,6917.878,95.438,540.527,538.96,0.0
